{
  "type": "FeatureCollection",
  "features": [
    {
      "type": "Feature",
      "properties": {
        "norad_id": 66618,
        "name": "STARLINK-35970",
        "group": "last-30-days",
        "lat": -41.47519952609599,
        "lon": 116.17068469489494,
        "alt_km": 423.1731232411057,
        "timestamp": "2025-12-18T21:31:49.698945+00:00",
        "meta_object_name": "STARLINK-35970",
        "meta_object_id": "2025-271B",
        "meta_epoch": "2025-12-18T06:17:22.301088",
        "meta_mean_motion": 15.49347181,
        "meta_eccentricity": 6.877e-05,
        "meta_inclination": 53.1593,
        "meta_ra_of_asc_node": 160.7171,
        "meta_arg_of_pericenter": 60.1734,
        "meta_mean_anomaly": 299.9343,
        "meta_ephemeris_type": 0,
        "meta_classification_type": "U",
        "meta_norad_cat_id": 66618,
        "meta_element_set_no": 999,
        "meta_rev_at_epoch": 506,
        "meta_bstar": 0.00059325698,
        "meta_mean_motion_dot": 0.00032729,
        "meta_mean_motion_ddot": 0,
        "tle_line1": "1 66618U 25271B   25352.26206367  .00032729  00000+0  59326-3 0  9993",
        "tle_line2": "2 66618  53.1593 160.7171 0000687  60.1734 299.9343 15.49347181  5063"
      },
      "geometry": {
        "type": "Point",
        "coordinates": [
          116.17068469489494,
          -41.47519952609599
        ]
      }
    },
    {
      "type": "Feature",
      "properties": {
        "norad_id": 66619,
        "name": "STARLINK-35951",
        "group": "last-30-days",
        "lat": -51.700685922563316,
        "lon": 49.46405519493007,
        "alt_km": 423.2910987157338,
        "timestamp": "2025-12-18T21:31:49.698958+00:00",
        "meta_object_name": "STARLINK-35951",
        "meta_object_id": "2025-271C",
        "meta_epoch": "2025-12-18T04:56:14.648640",
        "meta_mean_motion": 15.49345027,
        "meta_eccentricity": 4.912e-05,
        "meta_inclination": 53.159,
        "meta_ra_of_asc_node": 161.0817,
        "meta_arg_of_pericenter": 65.7997,
        "meta_mean_anomaly": 294.3063,
        "meta_ephemeris_type": 0,
        "meta_classification_type": "U",
        "meta_norad_cat_id": 66619,
        "meta_element_set_no": 999,
        "meta_rev_at_epoch": 505,
        "meta_bstar": 0.0020150292,
        "meta_mean_motion_dot": 0.00113404,
        "meta_mean_motion_ddot": 0,
        "tle_line1": "1 66619U 25271C   25352.20572510  .00113404  00000+0  20150-2 0  9996",
        "tle_line2": "2 66619  53.1590 161.0817 0000491  65.7997 294.3063 15.49345027  5051"
      },
      "geometry": {
        "type": "Point",
        "coordinates": [
          49.46405519493007,
          -51.700685922563316
        ]
      }
    },
    {
      "type": "Feature",
      "properties": {
        "norad_id": 66620,
        "name": "STARLINK-35936",
        "group": "last-30-days",
        "lat": -49.869072333234584,
        "lon": 40.579770656259946,
        "alt_km": 423.84850959515916,
        "timestamp": "2025-12-18T21:31:49.698968+00:00",
        "meta_object_name": "STARLINK-35936",
        "meta_object_id": "2025-271D",
        "meta_epoch": "2025-12-18T06:30:37.138752",
        "meta_mean_motion": 15.49329114,
        "meta_eccentricity": 8.502e-05,
        "meta_inclination": 53.1601,
        "meta_ra_of_asc_node": 160.7823,
        "meta_arg_of_pericenter": 76.6318,
        "meta_mean_anomaly": 283.4786,
        "meta_ephemeris_type": 0,
        "meta_classification_type": "U",
        "meta_norad_cat_id": 66620,
        "meta_element_set_no": 999,
        "meta_rev_at_epoch": 506,
        "meta_bstar": 0.00071542612,
        "meta_mean_motion_dot": 0.00039571,
        "meta_mean_motion_ddot": 0,
        "tle_line1": "1 66620U 25271D   25352.27126318  .00039571  00000+0  71543-3 0  9991",
        "tle_line2": "2 66620  53.1601 160.7823 0000850  76.6318 283.4786 15.49329114  5067"
      },
      "geometry": {
        "type": "Point",
        "coordinates": [
          40.579770656259946,
          -49.869072333234584
        ]
      }
    },
    {
      "type": "Feature",
      "properties": {
        "norad_id": 66621,
        "name": "STARLINK-35847",
        "group": "last-30-days",
        "lat": -39.225123493009775,
        "lon": 119.93530141885827,
        "alt_km": 423.20426959503493,
        "timestamp": "2025-12-18T21:31:49.698978+00:00",
        "meta_object_name": "STARLINK-35847",
        "meta_object_id": "2025-271E",
        "meta_epoch": "2025-12-18T06:16:26.313024",
        "meta_mean_motion": 15.49353563,
        "meta_eccentricity": 9.456e-05,
        "meta_inclination": 53.1596,
        "meta_ra_of_asc_node": 160.7113,
        "meta_arg_of_pericenter": 77.4059,
        "meta_mean_anomaly": 282.7056,
        "meta_ephemeris_type": 0,
        "meta_classification_type": "U",
        "meta_norad_cat_id": 66621,
        "meta_element_set_no": 999,
        "meta_rev_at_epoch": 506,
        "meta_bstar": 0.00086958215,
        "meta_mean_motion_dot": 0.0004829,
        "meta_mean_motion_ddot": 0,
        "tle_line1": "1 66621U 25271E   25352.26141566  .00048290  00000+0  86958-3 0  9997",
        "tle_line2": "2 66621  53.1596 160.7113 0000945  77.4059 282.7056 15.49353563  5066"
      },
      "geometry": {
        "type": "Point",
        "coordinates": [
          119.93530141885827,
          -39.225123493009775
        ]
      }
    },
    {
      "type": "Feature",
      "properties": {
        "norad_id": 66622,
        "name": "STARLINK-35950",
        "group": "last-30-days",
        "lat": -26.689491773897874,
        "lon": 0.005517326658245116,
        "alt_km": 455.2678862497178,
        "timestamp": "2025-12-18T21:31:49.698991+00:00",
        "meta_object_name": "STARLINK-35950",
        "meta_object_id": "2025-271F",
        "meta_epoch": "2025-12-18T06:00:02.999808",
        "meta_mean_motion": 15.41653631,
        "meta_eccentricity": 0.00015776,
        "meta_inclination": 53.1602,
        "meta_ra_of_asc_node": 160.9153,
        "meta_arg_of_pericenter": 89.8358,
        "meta_mean_anomaly": 134.9054,
        "meta_ephemeris_type": 0,
        "meta_classification_type": "U",
        "meta_norad_cat_id": 66622,
        "meta_element_set_no": 999,
        "meta_rev_at_epoch": 512,
        "meta_bstar": -0.063008004,
        "meta_mean_motion_dot": -0.02397099,
        "meta_mean_motion_ddot": 0,
        "tle_line1": "1 66622U 25271F   25352.25003472 -.02397099  00000+0 -63008-1 0  9997",
        "tle_line2": "2 66622  53.1602 160.9153 0001577  89.8358 134.9054 15.41653631  5126"
      },
      "geometry": {
        "type": "Point",
        "coordinates": [
          0.005517326658245116,
          -26.689491773897874
        ]
      }
    },
    {
      "type": "Feature",
      "properties": {
        "norad_id": 66623,
        "name": "STARLINK-35920",
        "group": "last-30-days",
        "lat": 13.355945581870147,
        "lon": -32.29032347997316,
        "alt_km": 445.89189028411965,
        "timestamp": "2025-12-18T21:31:49.699001+00:00",
        "meta_object_name": "STARLINK-35920",
        "meta_object_id": "2025-271G",
        "meta_epoch": "2025-12-18T06:00:02.999808",
        "meta_mean_motion": 15.39594449,
        "meta_eccentricity": 8.877e-05,
        "meta_inclination": 53.1598,
        "meta_ra_of_asc_node": 161.0128,
        "meta_arg_of_pericenter": 96.4168,
        "meta_mean_anomaly": 78.2111,
        "meta_ephemeris_type": 0,
        "meta_classification_type": "U",
        "meta_norad_cat_id": 66623,
        "meta_element_set_no": 999,
        "meta_rev_at_epoch": 512,
        "meta_bstar": 0.0010519091,
        "meta_mean_motion_dot": 0.00041872,
        "meta_mean_motion_ddot": 0,
        "tle_line1": "1 66623U 25271G   25352.25003472  .00041872  00000+0  10519-2 0  9999",
        "tle_line2": "2 66623  53.1598 161.0128 0000887  96.4168  78.2111 15.39594449  5123"
      },
      "geometry": {
        "type": "Point",
        "coordinates": [
          -32.29032347997316,
          13.355945581870147
        ]
      }
    },
    {
      "type": "Feature",
      "properties": {
        "norad_id": 66624,
        "name": "STARLINK-35927",
        "group": "last-30-days",
        "lat": -52.49769203427985,
        "lon": 55.45131708805201,
        "alt_km": 423.6522900455748,
        "timestamp": "2025-12-18T21:31:49.699011+00:00",
        "meta_object_name": "STARLINK-35927",
        "meta_object_id": "2025-271H",
        "meta_epoch": "2025-12-18T06:28:08.802912",
        "meta_mean_motion": 15.49344315,
        "meta_eccentricity": 8.36e-05,
        "meta_inclination": 53.1597,
        "meta_ra_of_asc_node": 160.7697,
        "meta_arg_of_pericenter": 82.8283,
        "meta_mean_anomaly": 277.2821,
        "meta_ephemeris_type": 0,
        "meta_classification_type": "U",
        "meta_norad_cat_id": 66624,
        "meta_element_set_no": 999,
        "meta_rev_at_epoch": 506,
        "meta_bstar": 0.0017346453,
        "meta_mean_motion_dot": 0.00097357,
        "meta_mean_motion_ddot": 0,
        "tle_line1": "1 66624U 25271H   25352.26954633  .00097357  00000+0  17346-2 0  9999",
        "tle_line2": "2 66624  53.1597 160.7697 0000836  82.8283 277.2821 15.49344315  5069"
      },
      "geometry": {
        "type": "Point",
        "coordinates": [
          55.45131708805201,
          -52.49769203427985
        ]
      }
    }
  ]
}